NORAD_CAT_ID,OBJECT_NAME,OBJECT_TYPE,EPOCH,MEAN_MOTION,ECCENTRICITY,INCLINATION,RA_OF_ASC_NODE,ARG_OF_PERICENTER,MEAN_ANOMALY,BSTAR,MEAN_MOTION_DOT,MEAN_MOTION_DDOT,TLE_LINE0,TLE_LINE1,TLE_LINE2,SEMIMAJOR_AXIS,PERIOD,APOGEE,PERIGEE,DECAYED
56796.0,STARLINK-6049,PAYLOAD,2023-08-03 12:42:28,15.69909042,0.0002846,69.9973,232.6405,262.3129,97.7744,-1.1559e-06,-3.51e-06,0.0,0 STARLINK-6049,1 56796U 23078AF  23215.52949154 -.00000351  00000-0 -11559-5 0  9992,2 56796  69.9973 232.6405 0002846 262.3129  97.7744 15.69909042 10391,6737.294,91.725,361.077,357.242,0.0
56796.0,STARLINK-6049,PAYLOAD,2023-08-04 02:28:12,15.69931129,0.0003208,69.9978,231.028,256.4452,103.6386,2.3698e-05,2.638e-05,0.0,0 STARLINK-6049,1 56796U 23078AF  23216.10292211  .00002638  00000-0  23698-4 0  9996,2 56796  69.9978 231.0280 0003208 256.4452 103.6386 15.69931129 10486,6737.231,91.724,361.257,356.935,0.0
56796.0,STARLINK-6049,PAYLOAD,2023-08-04 10:06:58,15.69920301,0.0003191,69.9984,230.1326,263.6754,96.4078,1.7373e-05,1.876e-05,0.0,0 STARLINK-6049,1 56796U 23078AF  23216.42151433  .00001876  00000-0  17373-4 0  9997,2 56796  69.9984 230.1326 0003191 263.6754  96.4078 15.69920301 10533,6737.262,91.724,361.277,356.977,0.0
56796.0,STARLINK-6049,PAYLOAD,2023-08-04 13:10:30,15.6990514,0.0003469,69.9971,229.7749,268.3747,91.7052,-2.3531e-05,-3.039e-05,0.0,0 STARLINK-6049,1 56796U 23078AF  23216.54896378 -.00003039  00000-0 -23531-4 0  9992,2 56796  69.9971 229.7749 0003469 268.3747  91.7052 15.69905140 10550,6737.305,91.725,361.508,356.833,0.0
56796.0,STARLINK-6049,PAYLOAD,2023-08-05 02:56:14,15.69934661,0.0002984,69.9971,228.1581,265.0741,95.0114,3.2769e-05,3.731e-05,0.0,0 STARLINK-6049,1 56796U 23078AF  23217.12238907  .00003731  00000-0  32769-4 0  9995,2 56796  69.9971 228.1581 0002984 265.0741  95.0114 15.69934661 10642,6737.221,91.724,361.096,357.076,0.0
56796.0,STARLINK-6049,PAYLOAD,2023-08-05 10:35:00,15.69921025,0.0003375,69.9974,227.2627,274.3387,85.7423,1.4776e-05,1.564e-05,0.0,0 STARLINK-6049,1 56796U 23078AF  23217.44098082  .00001564  00000-0  14776-4 0  9998,2 56796  69.9974 227.2627 0003375 274.3387  85.7423 15.69921025 10694,6737.26,91.724,361.399,356.851,0.0
56796.0,STARLINK-6049,PAYLOAD,2023-08-06 01:52:32,15.69918789,0.0003123,69.9982,225.4773,268.1933,91.8905,-6.7143e-06,-1.02e-05,0.0,0 STARLINK-6049,1 56796U 23078AF  23218.07815674 -.00001020  00000-0 -67143-5 0  9998,2 56796  69.9982 225.4773 0003123 268.1933  91.8905 15.69918789 10791,6737.266,91.724,361.235,357.027,0.0
56796.0,STARLINK-6049,PAYLOAD,2023-08-07 09:59:21,15.69910904,0.0002583,69.9983,221.713,267.1734,92.9166,-3.1959e-05,-4.051e-05,0.0,0 STARLINK-6049,1 56796U 23078AF  23219.41621680 -.00004051  00000-0 -31959-4 0  9991,2 56796  69.9983 221.7130 0002583 267.1734  92.9166 15.69910904 11002,6737.289,91.725,360.894,357.414,0.0
56796.0,STARLINK-6049,PAYLOAD,2023-08-07 17:38:05,15.69922104,0.0003305,69.9963,220.8167,270.1563,89.9254,8.6408e-06,8.26e-06,0.0,0 STARLINK-6049,1 56796U 23078AF  23219.73478452  .00000826  00000-0  86408-5 0  9997,2 56796  69.9963 220.8167 0003305 270.1563  89.9254 15.69922104 11051,6737.257,91.724,361.349,356.895,0.0
56796.0,STARLINK-6049,PAYLOAD,2023-08-09 09:23:38,15.6993119,0.0003161,69.9979,216.1594,262.4743,97.6094,-3.1035e-06,-5.86e-06,0.0,0 STARLINK-6049,1 56796U 23078AF  23221.39141761 -.00000586  00000-0 -31035-5 0  9993,2 56796  69.9979 216.1594 0003161 262.4743  97.6094 15.69931190 11316,6737.231,91.724,361.226,356.966,0.0
56796.0,STARLINK-6049,PAYLOAD,2023-08-09 17:02:24,15.69914749,0.0002685,69.9968,215.2625,265.5973,94.4916,1.1921e-05,1.221e-05,0.0,0 STARLINK-6049,1 56796U 23078AF  23221.71001027  .00001221  00000-0  11921-4 0  9995,2 56796  69.9968 215.2625 0002685 265.5973  94.4916 15.69914749 11362,6737.278,91.725,360.952,357.334,0.0
56796.0,STARLINK-6049,PAYLOAD,2023-08-09 23:09:24,15.6992164,0.0003334,69.9976,214.547,264.8946,95.1869,1.1777e-05,1.203e-05,0.0,0 STARLINK-6049,1 56796U 23078AF  23221.96487188  .00001203  00000-0  11777-4 0  9997,2 56796  69.9976 214.5470 0003334 264.8946  95.1869 15.69921640 11403,6737.258,91.724,361.369,356.877,0.0
56796.0,STARLINK-6049,PAYLOAD,2023-08-10 11:23:26,15.6991468,0.0002282,69.9987,213.1151,295.0043,65.0916,-1.0981e-05,-1.531e-05,0.0,0 STARLINK-6049,1 56796U 23078AF  23222.47461181 -.00001531  00000-0 -10981-4 0  9991,2 56796  69.9987 213.1151 0002282 295.0043  65.0916 15.69914680 11484,6737.278,91.725,360.681,357.606,0.0
56796.0,STARLINK-6049,PAYLOAD,2023-08-11 08:47:57,15.69927711,0.0003644,69.9966,210.6046,264.788,95.29,1.196e-05,1.226e-05,0.0,0 STARLINK-6049,1 56796U 23078AF  23223.36663537  .00001226  00000-0  11960-4 0  9996,2 56796  69.9966 210.6046 0003644 264.7880  95.2900 15.69927711 11624,6737.241,91.724,361.561,356.651,0.0
56796.0,STARLINK-6049,PAYLOAD,2023-08-12 09:15:59,15.69930848,0.0003252,69.9971,207.7394,261.7872,98.2955,1.7198e-05,1.856e-05,0.0,0 STARLINK-6049,1 56796U 23078AF  23224.38610023  .00001856  00000-0  17198-4 0  9999,2 56796  69.9971 207.7394 0003252 261.7872  98.2955 15.69930848 11781,6737.232,91.724,361.288,356.906,0.0
56796.0,STARLINK-6049,PAYLOAD,2023-08-13 05:08:46,15.69916057,0.0003157,69.9986,205.4101,267.3034,92.7801,3.3963e-05,3.871e-05,0.0,0 STARLINK-6049,1 56796U 23078AF  23225.21442560  .00003871  00000-0  33963-4 0  9998,2 56796  69.9986 205.4101 0003157 267.3034  92.7801 15.69916057 11914,6737.274,91.725,361.266,357.012,0.0
56796.0,STARLINK-6049,PAYLOAD,2023-08-14 01:01:32,15.69928319,0.0003166,69.9987,203.0814,268.7074,91.3759,1.3021e-05,1.353e-05,0.0,0 STARLINK-6049,1 56796U 23078AF  23226.04273752  .00001353  00000-0  13021-4 0  9991,2 56796  69.9987 203.0814 0003166 268.7074  91.3759 15.69928319 12045,6737.239,91.724,361.237,356.971,0.0
56796.0,STARLINK-6049,PAYLOAD,2023-08-14 08:40:18,15.69922899,0.0003363,69.998,202.1857,269.5844,90.4966,-3.5003e-07,-2.55e-06,0.0,0 STARLINK-6049,1 56796U 23078AF  23226.36132668 -.00000255  00000-0 -35003-6 0  9994,2 56796  69.9980 202.1857 0003363 269.5844  90.4966 15.69922899 12090,6737.255,91.724,361.385,356.854,0.0
56796.0,STARLINK-6049,PAYLOAD,2023-08-15 15:15:21,15.69918322,0.0003347,69.9971,198.6032,272.2191,87.8621,2.8155e-06,1.26e-06,0.0,0 STARLINK-6049,1 56796U 23078AF  23227.63566345  .00000126  00000-0  28155-5 0  9992,2 56796  69.9971 198.6032 0003347 272.2191  87.8621 15.69918322 12298,6737.268,91.725,361.388,356.878,0.0
56796.0,STARLINK-6049,PAYLOAD,2023-08-16 00:25:51,15.69926463,0.0003244,69.9968,197.5278,272.0014,88.081,7.8053e-06,7.26e-06,0.0,0 STARLINK-6049,1 56796U 23078AF  23228.01795800  .00000726  00000-0  78053-5 0  9993,2 56796  69.9968 197.5278 0003244 272.0014  88.0810 15.69926463 12357,6737.244,91.724,361.295,356.924,0.0
56796.0,STARLINK-6049,PAYLOAD,2023-08-17 07:00:53,15.69927988,0.000333,69.9975,193.9458,270.9067,89.1747,1.018e-05,1.012e-05,0.0,0 STARLINK-6049,1 56796U 23078AF  23229.29229034  .00001012  00000-0  10180-4 0  9990,2 56796  69.9975 193.9458 0003330 270.9067  89.1747 15.69927988 12552,6737.24,91.724,361.349,356.862,0.0
56796.0,STARLINK-6049,PAYLOAD,2023-08-18 01:21:56,15.69920111,0.000338,69.9979,191.7967,272.286,87.7949,3.3548e-06,1.91e-06,0.0,0 STARLINK-6049,1 56796U 23078AF  23230.05689819  .00000191  00000-0  33548-5 0  9998,2 56796  69.9979 191.7967 0003380 272.2860  87.7949 15.69920111 12670,6737.263,91.724,361.405,356.85,0.0
56796.0,STARLINK-6049,PAYLOAD,2023-08-18 15:07:41,15.69928442,0.0003213,69.9978,190.1843,275.3398,84.7431,1.2695e-05,1.314e-05,0.0,0 STARLINK-6049,1 56796U 23078AF  23230.63034264  .00001314  00000-0  12695-4 0  9997,2 56796  69.9978 190.1843 0003213 275.3398  84.7431 15.69928442 12768,6737.239,91.724,361.268,356.939,0.0
56796.0,STARLINK-6049,PAYLOAD,2023-08-19 00:18:13,15.69910221,0.0003993,69.998,189.1099,285.4389,74.6365,-1.2258e-05,-1.686e-05,0.0,0 STARLINK-6049,1 56796U 23078AF  23231.01265761 -.00001686  00000-0 -12258-4 0  9997,2 56796  69.9980 189.1099 0003993 285.4389  74.6365 15.69910221 12826,6737.291,91.725,361.846,356.466,0.0
56796.0,STARLINK-6049,PAYLOAD,2023-08-19 06:25:13,15.69916056,0.0003035,69.9985,188.3925,270.4624,89.6224,-1.1109e-06,-3.46e-06,0.0,0 STARLINK-6049,1 56796U 23078AF  23231.26751900 -.00000346  00000-0 -11109-5 0  9996,2 56796  69.9985 188.3925 0003035 270.4624  89.6224 15.69916056 12869,6737.274,91.725,361.184,357.094,0.0
56796.0,STARLINK-6049,PAYLOAD,2023-08-20 00:46:14,15.69922282,0.000332,69.9979,186.2433,272.2597,87.8218,9.0455e-06,8.75e-06,0.0,0 STARLINK-6049,1 56796U 23078AF  23232.03211552  .00000875  00000-0  90455-5 0  9992,2 56796  69.9979 186.2433 0003320 272.2597  87.8218 15.69922282 12983,6737.256,91.724,361.358,356.885,0.0
56796.0,STARLINK-6049,PAYLOAD,2023-08-20 23:42:31,15.6993228,0.0003245,69.9976,183.556,270.3001,89.7822,6.0554e-06,5.16e-06,0.0,0 STARLINK-6049,1 56796U 23078AF  23232.98785895  .00000516  00000-0  60554-5 0  9991,2 56796  69.9976 183.5560 0003245 270.3001  89.7822 15.69932280 13135,6737.228,91.724,361.279,356.907,0.0
56796.0,STARLINK-6049,PAYLOAD,2023-08-21 07:21:18,15.69905812,0.0002949,69.9986,182.6616,286.1381,73.949,1.1238e-05,1.138e-05,0.0,0 STARLINK-6049,1 56796U 23078AF  23233.30646168  .00001138  00000-0  11238-4 0  9992,2 56796  69.9986 182.6616 0002949 286.1381  73.9490 15.69905812 13186,6737.303,91.725,361.155,357.182,0.0
56796.0,STARLINK-6049,PAYLOAD,2023-08-22 07:49:19,15.69920951,0.000318,69.9987,179.7947,269.4109,90.6722,2.5232e-06,9.1e-07,0.0,0 STARLINK-6049,1 56796U 23078AF  23234.32592179  .00000091  00000-0  25232-5 0  9994,2 56796  69.9987 179.7947 0003180 269.4109  90.6722 15.69920951 13344,6737.26,91.724,361.268,356.983,0.0
56796.0,STARLINK-6049,PAYLOAD,2023-08-22 23:06:50,15.69926863,0.0003566,69.9973,178.003,277.8568,82.2223,1.274e-05,1.319e-05,0.0,0 STARLINK-6049,1 56796U 23078AF  23234.96308238  .00001319  00000-0  12740-4 0  9998,2 56796  69.9973 178.0030 0003566 277.8568  82.2223 15.69926863 13446,6737.243,91.724,361.511,356.706,0.0
